{"fetched_at":"2026-03-29T16:36:15Z","count":15609,"tles":[{"name":"STARLINK-30860","line1":"1 58234U 23171E   26087.61401067  .00056715  00000+0  20773-2 0  9998","line2":"2 58234  43.0017 177.9407 0000943 255.8181 104.2566 15.27220331132635","category":"Starlink"}]}